{"type": "FeatureCollection", "features": [ {"type": "Feature", "properties": {"norad_id": 37421, "name": "FENGYUN 1C DEB", "group": "fengyun-1c-debris", "lat": 29.717473752780123, "lon": 134.02533247763182, "alt_km": 1068.928886194878, "timestamp": "2025-12-21T03:56:51.124065+00:00", "meta": {"OBJECT_NAME": "FENGYUN 1C DEB", "OBJECT_ID": "1999-025EGP", "EPOCH": "2025-12-17T07:53:38.656896", "MEAN_MOTION": 13.40536382, "ECCENTRICITY": 0.04092708, "INCLINATION": 98.888, "RA_OF_ASC_NODE": 305.5227, "ARG_OF_PERICENTER": 73.9716, "MEAN_ANOMALY": 290.6084, "EPHEMERIS_TYPE": 0, "CLASSIFICATION_TYPE": "U", "NORAD_CAT_ID": 37421, "ELEMENT_SET_NO": 999, "REV_AT_EPOCH": 61007, "BSTAR": 0.00075435568, "MEAN_MOTION_DOT": 6.43e-06, "MEAN_MOTION_DDOT": 0}, "tle": {"line1": "1 37421U 99025EGP 25351.32891964  .00000643  00000+0  75436-3 0  9990", "line2": "2 37421  98.8880 305.5227 0409270  73.9716 290.6084 13.40536382610077"}}, "geometry": {"type": "Point", "coordinates": [134.02533247763182, 29.717473752780123]}}, {"type": "Feature", "properties": {"norad_id": 37423, "name": "FENGYUN 1C DEB", "group": "fengyun-1c-debris", "lat": 61.333422556523786, "lon": 28.74464856742841, "alt_km": 851.5949331593902, "timestamp": "2025-12-21T03:56:51.124074+00:00", "meta": {"OBJECT_NAME": "FENGYUN 1C DEB", "OBJECT_ID": "1999-025EGR", "EPOCH": "2025-12-19T20:56:31.693920", "MEAN_MOTION": 14.07571536, "ECCENTRICITY": 0.0049402, "INCLINATION": 98.7853, "RA_OF_ASC_NODE": 43.9189, "ARG_OF_PERICENTER": 140.2024, "MEAN_ANOMALY": 220.2786, "EPHEMERIS_TYPE": 0, "CLASSIFICATION_TYPE": "U", "NORAD_CAT_ID": 37423, "ELEMENT_SET_NO": 999, "REV_AT_EPOCH": 63710, "BSTAR": 0.00067171, "MEAN_MOTION_DOT": 1.103e-05, "MEAN_MOTION_DDOT": 0}, "tle": {"line1": "1 37423U 99025EGR 25353.87258905  .00001103  00000+0  67171-3 0  9995", "line2": "2 37423  98.7853  43.9189 0049402 140.2024 220.2786 14.07571536637100"}}, "geometry": {"type": "Point", "coordinates": [28.74464856742841, 61.333422556523786]}}, {"type": "Feature", "properties": {"norad_id": 37424, "name": "FENGYUN 1C DEB", "group": "fengyun-1c-debris", "lat": -65.81051981157306, "lon": -74.25992874051157, "alt_km": 687.3213361929884, "timestamp": "2025-12-21T03:56:51.124083+00:00", "meta": {"OBJECT_NAME": "FENGYUN 1C DEB", "OBJECT_ID": "1999-025EGS", "EPOCH": "2025-12-18T03:38:23.573472", "MEAN_MOTION": 14.17877456, "ECCENTRICITY": 0.0214773, "INCLINATION": 97.1982, "RA_OF_ASC_NODE": 119.6335, "ARG_OF_PERICENTER": 266.2363, "MEAN_ANOMALY": 91.4237, "EPHEMERIS_TYPE": 0, "CLASSIFICATION_TYPE": "U", "NORAD_CAT_ID": 37424, "ELEMENT_SET_NO": 999, "REV_AT_EPOCH": 68650, "BSTAR": 0.00087369687, "MEAN_MOTION_DOT": 2.206e-05, "MEAN_MOTION_DDOT": 0}, "tle": {"line1": "1 37424U 99025EGS 25352.15166173  .00002206  00000+0  87370-3 0  9999", "line2": "2 37424  97.1982 119.6335 0214773 266.2363  91.4237 14.17877456686509"}}, "geometry": {"type": "Point", "coordinates": [-74.25992874051157, -65.81051981157306]}}, {"type": "Feature", "properties": {"norad_id": 37427, "name": "FENGYUN 1C DEB", "group": "fengyun-1c-debris", "lat": -17.753558248617782, "lon": -44.86414504990806, "alt_km": 535.615074571313, "timestamp": "2025-12-21T03:56:51.124092+00:00", "meta": {"OBJECT_NAME": "FENGYUN 1C DEB", "OBJECT_ID": "1999-025EGV", "EPOCH": "2025-12-18T02:54:56.658240", "MEAN_MOTION": 14.9812711, "ECCENTRICITY": 0.0187852, "INCLINATION": 98.6206, "RA_OF_ASC_NODE": 134.5593, "ARG_OF_PERICENTER": 280.0724, "MEAN_ANOMALY": 77.9349, "EPHEMERIS_TYPE": 0, "CLASSIFICATION_TYPE": "U", "NORAD_CAT_ID": 37427, "ELEMENT_SET_NO": 999, "REV_AT_EPOCH": 60403, "BSTAR": 0.00035837255, "MEAN_MOTION_DOT": 6.036e-05, "MEAN_MOTION_DDOT": 0}, "tle": {"line1": "1 37427U 99025EGV 25352.12148910  .00006036  00000+0  35837-3 0  9994", "line2": "2 37427  98.6206 134.5593 0187852 280.0724  77.9349 14.98127110604036"}}, "geometry": {"type": "Point", "coordinates": [-44.86414504990806, -17.753558248617782]}}, {"type": "Feature", "properties": {"norad_id": 37428, "name": "FENGYUN 1C DEB", "group": "fengyun-1c-debris", "lat": -80.91777097807314, "lon": -84.98806401777745, "alt_km": 821.1259463002352, "timestamp": "2025-12-21T03:56:51.124101+00:00", "meta": {"OBJECT_NAME": "FENGYUN 1C DEB", "OBJECT_ID": "1999-025EGW", "EPOCH": "2025-12-14T08:18:44.705664", "MEAN_MOTION": 14.34657068, "ECCENTRICITY": 0.0056813, "INCLINATION": 97.722, "RA_OF_ASC_NODE": 210.8336, "ARG_OF_PERICENTER": 94.0763, "MEAN_ANOMALY": 266.6921, "EPHEMERIS_TYPE": 0, "CLASSIFICATION_TYPE": "U", "NORAD_CAT_ID": 37428, "ELEMENT_SET_NO": 999, "REV_AT_EPOCH": 63459, "BSTAR": 0.0018586443, "MEAN_MOTION_DOT": 5.32e-05, "MEAN_MOTION_DDOT": 0}, "tle": {"line1": "1 37428U 99025EGW 25348.34635076  .00005320  00000+0  18586-2 0  9994", "line2": "2 37428  97.7220 210.8336 0056813  94.0763 266.6921 14.34657068634591"}}, "geometry": {"type": "Point", "coordinates": [-84.98806401777745, -80.91777097807314]}}, {"type": "Feature", "properties": {"norad_id": 37430, "name": "FENGYUN 1C DEB", "group": "fengyun-1c-debris", "lat": 0.6449262377125417, "lon": -110.58599537675462, "alt_km": 806.4629753335021, "timestamp": "2025-12-21T03:56:51.124110+00:00", "meta": {"OBJECT_NAME": "FENGYUN 1C DEB", "OBJECT_ID": "1999-025EGY", "EPOCH": "2025-12-05T03:58:16.719456", "MEAN_MOTION": 14.28846273, "ECCENTRICITY": 0.001883, "INCLINATION": 98.7668, "RA_OF_ASC_NODE": 53.2332, "ARG_OF_PERICENTER": 93.5332, "MEAN_ANOMALY": 266.8003, "EPHEMERIS_TYPE": 0, "CLASSIFICATION_TYPE": "U", "NORAD_CAT_ID": 37430, "ELEMENT_SET_NO": 999, "REV_AT_EPOCH": 61593, "BSTAR": 0.0038447795, "MEAN_MOTION_DOT": 9.683e-05, "MEAN_MOTION_DDOT": 0}, "tle": {"line1": "1 37430U 99025EGY 25339.16547129  .00009683  00000+0  38448-2 0  9993", "line2": "2 37430  98.7668  53.2332 0018830  93.5332 266.8003 14.28846273615930"}}, "geometry": {"type": "Point", "coordinates": [-110.58599537675462, 0.6449262377125417]}}, {"type": "Feature", "properties": {"norad_id": 37432, "name": "FENGYUN 1C DEB", "group": "fengyun-1c-debris", "lat": -81.52433885795934, "lon": 83.18439851294677, "alt_km": 594.526093454233, "timestamp": "2025-12-21T03:56:51.124119+00:00", "meta": {"OBJECT_NAME": "FENGYUN 1C DEB", "OBJECT_ID": "1999-025EHA", "EPOCH": "2025-12-18T06:57:07.635744", "MEAN_MOTION": 14.53484478, "ECCENTRICITY": 0.01820098, "INCLINATION": 98.1832, "RA_OF_ASC_NODE": 5.4367, "ARG_OF_PERICENTER": 270.6812, "MEAN_ANOMALY": 87.3534, "EPHEMERIS_TYPE": 0, "CLASSIFICATION_TYPE": "U", "NORAD_CAT_ID": 37432, "ELEMENT_SET_NO": 999, "REV_AT_EPOCH": 8457, "BSTAR": 0.00071615853, "MEAN_MOTION_DOT": 3.664e-05, "MEAN_MOTION_DDOT": 0}, "tle": {"line1": "1 37432U 99025EHA 25352.28967171  .00003664  00000+0  71616-3 0  9994", "line2": "2 37432  98.1832   5.4367 0182009 270.6812  87.3534 14.53484478 84575"}}, "geometry": {"type": "Point", "coordinates": [83.18439851294677, -81.52433885795934]}}, {"type": "Feature", "properties": {"norad_id": 37435, "name": "FENGYUN 1C DEB", "group": "fengyun-1c-debris", "lat": -34.574150622093256, "lon": 37.33654155994878, "alt_km": 797.0102649857809, "timestamp": "2025-12-21T03:56:51.124129+00:00", "meta": {"OBJECT_NAME": "FENGYUN 1C DEB", "OBJECT_ID": "1999-025EHD", "EPOCH": "2025-12-13T08:42:56.940192", "MEAN_MOTION": 14.22368341, "ECCENTRICITY": 0.00403043, "INCLINATION": 98.6487, "RA_OF_ASC_NODE": 23.6617, "ARG_OF_PERICENTER": 12.4728, "MEAN_ANOMALY": 347.7438, "EPHEMERIS_TYPE": 0, "CLASSIFICATION_TYPE": "U", "NORAD_CAT_ID": 37435, "ELEMENT_SET_NO": 999, "REV_AT_EPOCH": 88948, "BSTAR": 0.0015840008, "MEAN_MOTION_DOT": 3.512e-05, "MEAN_MOTION_DDOT": 0}, "tle": {"line1": "1 37435U 99025EHD 25347.36315903  .00003512  00000+0  15840-2 0  9998", "line2": "2 37435  98.6487  23.6617 0040304  12.4728 347.7438 14.22368341889483"}}, "geometry": {"type": "Point", "coordinates": [37.33654155994878, -34.574150622093256]}}, {"type": "Feature", "properties": {"norad_id": 37436, "name": "FENGYUN 1C DEB", "group": "fengyun-1c-debris", "lat": -71.12233461502993, "lon": 76.94873804063177, "alt_km": 920.1559673732108, "timestamp": "2025-12-21T03:56:51.124138+00:00", "meta": {"OBJECT_NAME": "FENGYUN 1C DEB", "OBJECT_ID": "1999-025EHE", "EPOCH": "2025-12-08T08:57:07.720992", "MEAN_MOTION": 14.06336267, "ECCENTRICITY": 0.00596162, "INCLINATION": 98.9375, "RA_OF_ASC_NODE": 36.9205, "ARG_OF_PERICENTER": 160.2305, "MEAN_ANOMALY": 200.1192, "EPHEMERIS_TYPE": 0, "CLASSIFICATION_TYPE": "U", "NORAD_CAT_ID": 37436, "ELEMENT_SET_NO": 999, "REV_AT_EPOCH": 63937, "BSTAR": 0.0011550832, "MEAN_MOTION_DOT": 1.893e-05, "MEAN_MOTION_DDOT": 0}, "tle": {"line1": "1 37436U 99025EHE 25342.37300603  .00001893  00000+0  11551-2 0  9991", "line2": "2 37436  98.9375  36.9205 0059616 160.2305 200.1192 14.06336267639376"}}, "geometry": {"type": "Point", "coordinates": [76.94873804063177, -71.12233461502993]}}, {"type": "Feature", "properties": {"norad_id": 37437, "name": "FENGYUN 1C DEB", "group": "fengyun-1c-debris", "lat": -42.29834438835866, "lon": 158.87434365155354, "alt_km": 913.0172072293472, "timestamp": "2025-12-21T03:56:51.124165+00:00", "meta": {"OBJECT_NAME": "FENGYUN 1C DEB", "OBJECT_ID": "1999-025EHF", "EPOCH": "2025-12-17T18:29:44.922048", "MEAN_MOTION": 14.18865115, "ECCENTRICITY": 0.01130155, "INCLINATION": 98.5858, "RA_OF_ASC_NODE": 343.4882, "ARG_OF_PERICENTER": 34.3362, "MEAN_ANOMALY": 143.2771, "EPHEMERIS_TYPE": 0, "CLASSIFICATION_TYPE": "U", "NORAD_CAT_ID": 37437, "ELEMENT_SET_NO": 999, "REV_AT_EPOCH": 64062, "BSTAR": 0.00044498448, "MEAN_MOTION_DOT": 9.45e-06, "MEAN_MOTION_DDOT": 0}, "tle": {"line1": "1 37437U 99025EHF 25351.77065882  .00000945  00000+0  44498-3 0  9997", "line2": "2 37437  98.5858 343.4882 0113015  34.3362 143.2771 14.18865115640626"}}, "geometry": {"type": "Point", "coordinates": [158.87434365155354, -42.29834438835866]}}]}